{
  "type": "FeatureCollection",
  "features": [
    {"type": "Feature", "geometry": {"type": "LineString", "coordinates": [[166.9821, -45.0393], [167.017, -45.0338], [167.0462, -45.0193], [167.061757, -45.007874], [167.0839, -44.9916], [167.1094, -44.9678], [167.122232, -44.95727], [167.1834, -44.907]]}, "properties": {"name": "Alpine: Caswell", "dip_deg": 80.051, "dip_direction_deg": 137.274, "upper_depth_km": 0.0, "lower_depth_km": 21.12}},
    {"type": "Feature", "geometry": {"type": "LineString", "coordinates": [[167.1834, -44.907], [167.196, -44.9013], [167.2131, -44.8894], [167.246, -44.8587], [167.2622, -44.842], [167.306731, -44.808936], [167.3127, -44.8045], [167.3421, -44.7837], [167.3753, -44.7644]]}, "properties": {"name": "Alpine: Caswell - South George", "dip_deg": 80.048, "dip_direction_deg": 133.825, "upper_depth_km": 0.0, "lower_depth_km": 16.72}},
    {"type": "Feature", "geometry": {"type": "LineString", "coordinates": [[167.375, -44.7645], [167.459518, -44.729624], [167.4653, -44.7262], [167.4714, -44.7222], [167.4915, -44.711], [167.5056, -44.7006], [167.5154, -44.6948], [167.5385, -44.6823]]}, "properties": {"name": "Alpine: George landward", "dip_deg": 80.052, "dip_direction_deg": 144.866, "upper_depth_km": 0.0, "lower_depth_km": 18.48}},
    {"type": "Feature", "geometry": {"type": "LineString", "coordinates": [[167.5385, -44.6823], [167.6062, -44.6462], [167.6287, -44.6338], [167.636395, -44.62988], [167.735901, -44.5791], [167.7496, -44.5735], [167.8115, -44.545], [167.83472, -44.529001], [167.8878, -44.5055], [167.934756, -44.479509], [167.953, -44.4694], [167.9631, -44.4618], [167.9907, -44.4514], [168.031587, -44.427181], [168.041, -44.4216], [168.122615, -44.369158], [168.1269, -44.3664], [168.1683, -44.3451], [168.218683, -44.315599], [168.2267, -44.3109], [168.2389, -44.3015], [168.2763, -44.2791], [168.311391, -44.259478], [168.3222, -44.2501], [168.3786, -44.223], [168.406197, -44.205823], [168.4894, -44.1749], [168.508469, -44.160352], [168.5291, -44.1446], [168.606207, -44.109481], [168.7086, -44.0627]]}, "properties": {"name": "Alpine: George to Jacksons", "dip_deg": 80.047, "dip_direction_deg": 143.973, "upper_depth_km": 0.0, "lower_depth_km": 20.0}},
    {"type": "Feature", "geometry": {"type": "LineString", "coordinates": [[168.7086, -44.0627], [168.829529, -44.011185], [168.950249, -43.959543], [169.070758, -43.907774], [169.0844, -43.9019], [169.189187, -43.8537], [169.307162, -43.799225], [169.3571, -43.7761], [169.42556, -43.745359], [169.544216, -43.691907], [169.66266, -43.638333], [169.779421, -43.582975], [169.895929, -43.527457], [170.012222, -43.471821], [170.05, -43.4537], [170.126367, -43.414026], [170.239359, -43.355136], [170.352133, -43.296135], [170.464687, -43.237024], [170.4862, -43.2257], [170.579836, -43.180769], [170.695438, -43.1251], [170.7561, -43.0958], [170.809557, -43.067963], [170.922053, -43.009219], [171.034334, -42.950364], [171.1464, -42.8914]]}, "properties": {"name": "Alpine: Jacksons to Kaniere", "dip_deg": 50.113, "dip_direction_deg": 147.427, "upper_depth_km": 0.0, "lower_depth_km": 17.84}},
    {"type": "Feature", "geometry": {"type": "LineString", "coordinates": [[166.8776, -45.1185], [166.9151, -45.0885], [166.929569, -45.078714], [166.9423, -45.0701], [166.9821, -45.0393]]}, "properties": {"name": "Alpine: Nancy", "dip_deg": 80.051, "dip_direction_deg": 133.108, "upper_depth_km": 0.0, "lower_depth_km": 21.76}},
    {"type": "Feature", "geometry": {"type": "LineString", "coordinates": [[166.3065, -45.5411], [166.3381, -45.5218], [166.3768, -45.4832], [166.397598, -45.465883], [166.4085, -45.4568], [166.4289, -45.4399], [166.4651, -45.4016], [166.481369, -45.386162], [166.5046, -45.3641], [166.580368, -45.316035], [166.6273, -45.2949], [166.687993, -45.252773], [166.7045, -45.2413], [166.7208, -45.2205], [166.771596, -45.173476], [166.8246, -45.1243], [166.8607, -45.0969]]}, "properties": {"name": "Alpine: Resolution - Dagg", "dip_deg": 80.054, "dip_direction_deg": 131.552, "upper_depth_km": 0.0, "lower_depth_km": 21.84}},
    {"type": "Feature", "geometry": {"type": "LineString", "coordinates": [[165.546, -46.0024], [165.648654, -45.950673], [165.7299, -45.9096], [165.748613, -45.896799], [165.838797, -45.834981], [165.928708, -45.773046], [166.011085, -45.706265], [166.0204, -45.6987], [166.102807, -45.645875], [166.1779, -45.5976], [166.194265, -45.58533], [166.2111, -45.5727], [166.2368, -45.5629], [166.2737, -45.5517], [166.2968, -45.5365]]}, "properties": {"name": "Alpine: Resolution - Five Fingers", "dip_deg": 80.062, "dip_direction_deg": 138.706, "upper_depth_km": 0.0, "lower_depth_km": 21.12}},
    {"type": "Feature", "geometry": {"type": "LineString", "coordinates": [[172.757765, -42.516376], [172.775, -42.517], [172.779017, -42.517721], [172.799803, -42.521449], [172.82059, -42.525173], [172.841381, -42.528893], [172.862173, -42.53261], [172.8834, -42.5364], [172.903843, -42.533013], [172.924631, -42.531287], [172.945114, -42.535845], [172.9656, -42.5404]]}, "properties": {"name": "Hanmer", "dip_deg": 60.103, "dip_direction_deg": 188.953, "upper_depth_km": 0.0, "lower_depth_km": 3.12}},
    {"type": "Feature", "geometry": {"type": "LineString", "coordinates": [[173.6641, -42.324], [173.618, -42.3417], [173.562537, -42.35048], [173.5079, -42.3591], [173.462661, -42.378837], [173.35963, -42.404558], [173.3233, -42.4136], [173.260534, -42.437244], [173.163517, -42.473689], [173.066387, -42.510051], [173.0427, -42.5189], [172.9656, -42.5404]]}, "properties": {"name": "Hope: Conway", "dip_deg": 80.037, "dip_direction_deg": 337.069, "upper_depth_km": 0.0, "lower_depth_km": 20.24}},
    {"type": "Feature", "geometry": {"type": "LineString", "coordinates": [[172.6484, -42.5755], [172.665199, -42.567179], [172.681994, -42.558855], [172.698784, -42.550529], [172.71557, -42.5422], [172.732351, -42.533869], [172.749128, -42.525536], [172.7659, -42.5172]]}, "properties": {"name": "Hope: Hanmer NW", "dip_deg": 70.06, "dip_direction_deg": 146.177, "upper_depth_km": 0.0, "lower_depth_km": 3.44}},
    {"type": "Feature", "geometry": {"type": "LineString", "coordinates": [[172.5735, -42.5885], [172.453347, -42.5992], [172.35, -42.6083], [172.333691, -42.611743], [172.247, -42.63], [172.217983, -42.63785], [172.104248, -42.668532], [171.9904, -42.6991]]}, "properties": {"name": "Hope: Hope River", "dip_deg": 70.075, "dip_direction_deg": 345.394, "upper_depth_km": 0.0, "lower_depth_km": 21.84}},
    {"type": "Feature", "geometry": {"type": "LineString", "coordinates": [[171.9904, -42.6991], [171.907729, -42.72123], [171.825, -42.7433]]}, "properties": {"name": "Hope: Hurunui", "dip_deg": 70.072, "dip_direction_deg": 340.022, "upper_depth_km": 0.0, "lower_depth_km": 16.0}},
    {"type": "Feature", "geometry": {"type": "LineString", "coordinates": [[172.6484, -42.5755], [172.611799, -42.584612], [172.5735, -42.5885]]}, "properties": {"name": "Hope: Kakapo-2-Hamner", "dip_deg": 70.075, "dip_direction_deg": 346.757, "upper_depth_km": 0.0, "lower_depth_km": 22.16}},
    {"type": "Feature", "geometry": {"type": "LineString", "coordinates": [[174.0, -42.2], [173.914162, -42.228791], [173.828246, -42.257518], [173.742252, -42.28618], [173.7031, -42.2992], [173.6641, -42.324]]}, "properties": {"name": "Hope: Seaward", "dip_deg": 80.036, "dip_direction_deg": 333.461, "upper_depth_km": 0.0, "lower_depth_km": 16.64}},
    {"type": "Feature", "geometry": {"type": "LineString", "coordinates": [[174.5083, -41.9633], [174.438267, -41.992957], [174.368169, -42.022571], [174.298006, -42.052143], [174.227778, -42.081671], [174.157484, -42.111157], [174.087125, -42.1406], [174.0167, -42.17]]}, "properties": {"name": "Hope: Te Rapa", "dip_deg": 80.035, "dip_direction_deg": 330.4, "upper_depth_km": 0.0, "lower_depth_km": 14.48}},
    {"type": "Feature", "geometry": {"type": "LineString", "coordinates": [[171.825, -42.7433], [171.777307, -42.763757], [171.7555, -42.7731], [171.726339, -42.778275], [171.67262, -42.787787], [171.618885, -42.797275], [171.565133, -42.806736], [171.511365, -42.816173], [171.463311, -42.836126], [171.415313, -42.856246], [171.362926, -42.869302], [171.310518, -42.882334], [171.2756, -42.891], [171.257113, -42.891066], [171.201757, -42.891246], [171.1464, -42.8914]]}, "properties": {"name": "Kelly", "dip_deg": 70.076, "dip_direction_deg": 343.257, "upper_depth_km": 0.0, "lower_depth_km": 8.88}},
    {"type": "Feature", "geometry": {"type": "LineString", "coordinates": [[176.6581, -41.2884], [176.576532, -41.330373], [176.494859, -41.372289], [176.41308, -41.414147], [176.331197, -41.455946], [176.249207, -41.497688], [176.2112, -41.517], [176.16328, -41.534399], [176.073952, -41.566755], [175.976143, -41.576722], [175.885461, -41.606632], [175.795015, -41.637362], [175.704482, -41.668021], [175.613863, -41.698609], [175.523158, -41.729125], [175.426605, -41.745846], [175.3753, -41.7495], [175.328504, -41.757506], [175.231433, -41.774046], [175.14209, -41.802027], [175.080283, -41.860293], [175.0066, -41.9095]]}, "properties": {"name": "Opouawe - Uruti", "dip_deg": 40.122, "dip_direction_deg": 332.842, "upper_depth_km": 0.0, "lower_depth_km": 11.12}},
    {"type": "Feature", "geometry": {"type": "LineString", "coordinates": [[174.6885, -41.9494], [174.628442, -41.954065], [174.568375, -41.958698], [174.5083, -41.9633]]}, "properties": {"name": "Te Rapa 1", "dip_deg": 80.042, "dip_direction_deg": 354.04, "upper_depth_km": 0.0, "lower_depth_km": 12.8}},
    {"type": "Feature", "geometry": {"type": "LineString", "coordinates": [[175.0134, -41.8009], [174.946651, -41.828384], [174.879845, -41.85583], [174.847, -41.8693], [174.814894, -41.885559], [174.751728, -41.917497], [174.6885, -41.9494]]}, "properties": {"name": "Te Rapa 2", "dip_deg": 70.067, "dip_direction_deg": 328.444, "upper_depth_km": 0.0, "lower_depth_km": 12.16}}
  ]
}
