{
  "type": "FeatureCollection",
  "features": [
    {"type": "Feature", "geometry": {"type": "LineString", "coordinates": [[172.118646, -43.62099], [171.952029, -43.542617]]}, "properties": {"name": "Greendale_NW_SE", "dip_deg": 75.05, "dip_direction_deg": 32.848, "upper_depth_km": 0.0, "lower_depth_km": 10.625}},
    {"type": "Feature", "geometry": {"type": "LineString", "coordinates": [[172.274995, -43.578997], [172.436032, -43.570837]]}, "properties": {"name": "Greendale_East", "dip_deg": 78.067, "dip_direction_deg": 176.069, "upper_depth_km": 0.0, "lower_depth_km": 9.782}},
    {"type": "Feature", "geometry": {"type": "LineString", "coordinates": [[172.070061, -43.597001], [172.30408, -43.585428]]}, "properties": {"name": "Greendale_central", "dip_deg": 80.054, "dip_direction_deg": 176.188, "upper_depth_km": 0.0, "lower_depth_km": 10.833}},
    {"type": "Feature", "geometry": {"type": "LineString", "coordinates": [[171.968498, -43.557758], [171.917393, -43.608685]]}, "properties": {"name": "Fault_Near_Hororata", "dip_deg": 50.018, "dip_direction_deg": 306.092, "upper_depth_km": 0.0, "lower_depth_km": 7.395}},
    {"type": "Feature", "geometry": {"type": "LineString", "coordinates": [[172.091728, -43.605105], [172.155839, -43.538806]]}, "properties": {"name": "Charing_Cross", "dip_deg": 70.018, "dip_direction_deg": 125.132, "upper_depth_km": 0.0, "lower_depth_km": 10.837}},
    {"type": "Feature", "geometry": {"type": "LineString", "coordinates": [[172.156304, -43.473182], [172.212205, -43.543265]]}, "properties": {"name": "Fault_NNW", "dip_deg": 53.989, "dip_direction_deg": 239.882, "upper_depth_km": 0.0, "lower_depth_km": 8.281}},
    {"type": "Feature", "geometry": {"type": "LineString", "coordinates": [[172.262726, -43.591689], [172.358511, -43.509015]]}, "properties": {"name": "Fault_NE", "dip_deg": 80.012, "dip_direction_deg": 130.153, "upper_depth_km": 0.0, "lower_depth_km": 10.848}}
  ]
}
